[{"OBJECT_NAME":"ASTROCAST-0402","OBJECT_ID":"2023-001DE","EPOCH":"2026-03-09T19:21:31.190400","MEAN_MOTION":15.26734153,"ECCENTRICITY":0.00042092,"INCLINATION":97.5556,"RA_OF_ASC_NODE":160.6821,"ARG_OF_PERICENTER":216.6984,"MEAN_ANOMALY":143.3966,"EPHEMERIS_TYPE":0,"CLASSIFICATION_TYPE":"U","NORAD_CAT_ID":55109,"ELEMENT_SET_NO":999,"REV_AT_EPOCH":12936,"BSTAR":0.00041835119,"MEAN_MOTION_DOT":0.0001093,"MEAN_MOTION_DDOT":0},{"OBJECT_NAME":"STARLINK-35931","OBJECT_ID":"2025-265D","EPOCH":"2026-03-09T22:59:56.213664","MEAN_MOTION":15.27591459,"ECCENTRICITY":0.00013912,"INCLINATION":42.9996,"RA_OF_ASC_NODE":276.4938,"ARG_OF_PERICENTER":249.1203,"MEAN_ANOMALY":110.95,"EPHEMERIS_TYPE":0,"CLASSIFICATION_TYPE":"U","NORAD_CAT_ID":66519,"ELEMENT_SET_NO":999,"REV_AT_EPOCH":1715,"BSTAR":0.00084454216,"MEAN_MOTION_DOT":0.00023059,"MEAN_MOTION_DDOT":0}]
